IRIDIUM 126             
1 42809U 17039G   24019.43739472  .00000613  00000+0  21197-3 0  9990
2 42809  86.3983   1.2912 0002398  82.7936 277.3532 14.34216635343862
IRIDIUM 124             
1 42810U 17039H   24019.24400479  .00000884  00000+0  25687-3 0  9991
2 42810  86.4501 298.1294 0001880  86.1326 274.0089 14.43292354348191
IRIDIUM 128             
1 42811U 17039J   24019.49789776  .00000336  00000+0  11304-3 0  9992
2 42811  86.3953  32.7787 0002158  86.7290 273.4153 14.34218819343897
IRIDIUM 121             
1 42812U 17039K   24018.89827545 -.00000578  00000+0 -21366-3 0  9992
2 42812  86.3977   1.5388 0002111  82.7288 277.4148 14.34215786343659
IRIDIUM 133             
1 42955U 17061A   24018.55285802  .00000313  00000+0  10481-3 0  9993
2 42955  86.3954  33.2703 0002326  88.8652 271.2811 14.34216968328559
IRIDIUM 100             
1 42956U 17061B   24019.10466229  .00000304  00000+0  10161-3 0  9995
2 42956  86.3952  32.9787 0002177  89.3846 270.7599 14.34215217328655
IRIDIUM 122             
1 42957U 17061C   24019.49155346  .00000355  00000+0  11967-3 0  9994
2 42957  86.3953  32.8149 0002148  86.2751 273.8690 14.34216956328698
IRIDIUM 129             
1 42958U 17061D   24019.09832153  .00000295  00000+0  98139-4 0  9999
2 42958  86.3954  33.0372 0002249  86.3462 273.7991 14.34217530328651
